{"type": "FeatureCollection", "features": [ {"type": "Feature", "properties": {"norad_id": 30272, "name": "FENGYUN 1C DEB", "group": "fengyun-1c-debris", "lat": 50.84220437777699, "lon": -117.41411683431319, "alt_km": 803.1185716661785, "timestamp": "2025-12-09T18:55:17.506966+00:00", "meta": {"OBJECT_NAME": "FENGYUN 1C DEB", "OBJECT_ID": "1999-025YH", "EPOCH": "2025-12-09T14:55:33.451680", "MEAN_MOTION": 14.14690549, "ECCENTRICITY": 0.0051158, "INCLINATION": 98.9004, "RA_OF_ASC_NODE": 51.3256, "ARG_OF_PERICENTER": 112.5748, "MEAN_ANOMALY": 248.0849, "EPHEMERIS_TYPE": 0, "CLASSIFICATION_TYPE": "U", "NORAD_CAT_ID": 30272, "ELEMENT_SET_NO": 999, "REV_AT_EPOCH": 96812, "BSTAR": 0.0019794006, "MEAN_MOTION_DOT": 3.815e-05, "MEAN_MOTION_DDOT": 0}, "tle": {"line1": "1 30272U 99025YH  25343.62191495  .00003815  00000+0  19794-2 0  9991", "line2": "2 30272  98.9004  51.3256 0051158 112.5748 248.0849 14.14690549968120"}}, "geometry": {"type": "Point", "coordinates": [-117.41411683431319, 50.84220437777699]}}, {"type": "Feature", "properties": {"norad_id": 30273, "name": "FENGYUN 1C DEB", "group": "fengyun-1c-debris", "lat": -52.008274717472325, "lon": 166.94373648570567, "alt_km": 851.6729937728196, "timestamp": "2025-12-09T18:55:17.506976+00:00", "meta": {"OBJECT_NAME": "FENGYUN 1C DEB", "OBJECT_ID": "1999-025YJ", "EPOCH": "2025-12-09T07:37:05.361024", "MEAN_MOTION": 14.02653422, "ECCENTRICITY": 0.0060451, "INCLINATION": 98.8409, "RA_OF_ASC_NODE": 357.9806, "ARG_OF_PERICENTER": 259.1257, "MEAN_ANOMALY": 117.0946, "EPHEMERIS_TYPE": 0, "CLASSIFICATION_TYPE": "U", "NORAD_CAT_ID": 30273, "ELEMENT_SET_NO": 999, "REV_AT_EPOCH": 96481, "BSTAR": 0.00084984, "MEAN_MOTION_DOT": 1.289e-05, "MEAN_MOTION_DDOT": 0}, "tle": {"line1": "1 30273U 99025YJ  25343.31742316  .00001289  00000+0  84984-3 0  9999", "line2": "2 30273  98.8409 357.9806 0060451 259.1257 117.0946 14.02653422964815"}}, "geometry": {"type": "Point", "coordinates": [166.94373648570567, -52.008274717472325]}}, {"type": "Feature", "properties": {"norad_id": 30274, "name": "FENGYUN 1C DEB", "group": "fengyun-1c-debris", "lat": -74.5492794346911, "lon": -104.2210142489605, "alt_km": 725.416042720828, "timestamp": "2025-12-09T18:55:17.506986+00:00", "meta": {"OBJECT_NAME": "FENGYUN 1C DEB", "OBJECT_ID": "1999-025YK", "EPOCH": "2025-12-09T14:29:42.163872", "MEAN_MOTION": 14.51524064, "ECCENTRICITY": 0.0004809, "INCLINATION": 99.3021, "RA_OF_ASC_NODE": 111.9445, "ARG_OF_PERICENTER": 215.5157, "MEAN_ANOMALY": 158.8067, "EPHEMERIS_TYPE": 0, "CLASSIFICATION_TYPE": "U", "NORAD_CAT_ID": 30274, "ELEMENT_SET_NO": 999, "REV_AT_EPOCH": 98165, "BSTAR": 0.0039230923, "MEAN_MOTION_DOT": 0.00015675, "MEAN_MOTION_DDOT": 0}, "tle": {"line1": "1 30274U 99025YK  25343.60396023  .00015675  00000+0  39231-2 0  9990", "line2": "2 30274  99.3021 111.9445 0004809 215.5157 158.8067 14.51524064981650"}}, "geometry": {"type": "Point", "coordinates": [-104.2210142489605, -74.5492794346911]}}, {"type": "Feature", "properties": {"norad_id": 30275, "name": "FENGYUN 1C DEB", "group": "fengyun-1c-debris", "lat": -79.00237100782394, "lon": 119.38261193546342, "alt_km": 744.5083326367221, "timestamp": "2025-12-09T18:55:17.506996+00:00", "meta": {"OBJECT_NAME": "FENGYUN 1C DEB", "OBJECT_ID": "1999-025YL", "EPOCH": "2025-12-09T04:39:47.691936", "MEAN_MOTION": 14.4520004, "ECCENTRICITY": 0.00399309, "INCLINATION": 98.6283, "RA_OF_ASC_NODE": 67.3974, "ARG_OF_PERICENTER": 196.7923, "MEAN_ANOMALY": 230.4725, "EPHEMERIS_TYPE": 0, "CLASSIFICATION_TYPE": "U", "NORAD_CAT_ID": 30275, "ELEMENT_SET_NO": 999, "REV_AT_EPOCH": 98033, "BSTAR": 0.002894048, "MEAN_MOTION_DOT": 0.00010207, "MEAN_MOTION_DDOT": 0}, "tle": {"line1": "1 30275U 99025YL  25343.19430199  .00010207  00000+0  28940-2 0  9999", "line2": "2 30275  98.6283  67.3974 0039930 196.7923 230.4725 14.45200040980338"}}, "geometry": {"type": "Point", "coordinates": [119.38261193546342, -79.00237100782394]}}, {"type": "Feature", "properties": {"norad_id": 30276, "name": "FENGYUN 1C DEB", "group": "fengyun-1c-debris", "lat": 50.771297045119645, "lon": 44.30890093931953, "alt_km": 784.9680928276812, "timestamp": "2025-12-09T18:55:17.507006+00:00", "meta": {"OBJECT_NAME": "FENGYUN 1C DEB", "OBJECT_ID": "1999-025YM", "EPOCH": "2025-12-09T15:18:54.545184", "MEAN_MOTION": 14.26996246, "ECCENTRICITY": 0.00252492, "INCLINATION": 98.859, "RA_OF_ASC_NODE": 55.1699, "ARG_OF_PERICENTER": 100.3655, "MEAN_ANOMALY": 260.0373, "EPHEMERIS_TYPE": 0, "CLASSIFICATION_TYPE": "U", "NORAD_CAT_ID": 30276, "ELEMENT_SET_NO": 999, "REV_AT_EPOCH": 97486, "BSTAR": 0.0020420467, "MEAN_MOTION_DOT": 4.942e-05, "MEAN_MOTION_DDOT": 0}, "tle": {"line1": "1 30276U 99025YM  25343.63813131  .00004942  00000+0  20420-2 0  9994", "line2": "2 30276  98.8590  55.1699 0025249 100.3655 260.0373 14.26996246974860"}}, "geometry": {"type": "Point", "coordinates": [44.30890093931953, 50.771297045119645]}}, {"type": "Feature", "properties": {"norad_id": 30277, "name": "FENGYUN 1C DEB", "group": "fengyun-1c-debris", "lat": -79.85837421935113, "lon": 172.40456631380738, "alt_km": 836.700227090183, "timestamp": "2025-12-09T18:55:17.507016+00:00", "meta": {"OBJECT_NAME": "FENGYUN 1C DEB", "OBJECT_ID": "1999-025YN", "EPOCH": "2025-12-09T04:13:20.861760", "MEAN_MOTION": 14.13547228, "ECCENTRICITY": 0.01240393, "INCLINATION": 98.9729, "RA_OF_ASC_NODE": 53.8317, "ARG_OF_PERICENTER": 187.781, "MEAN_ANOMALY": 201.1328, "EPHEMERIS_TYPE": 0, "CLASSIFICATION_TYPE": "U", "NORAD_CAT_ID": 30277, "ELEMENT_SET_NO": 999, "REV_AT_EPOCH": 96739, "BSTAR": 0.0017031599, "MEAN_MOTION_DOT": 3.409e-05, "MEAN_MOTION_DDOT": 0}, "tle": {"line1": "1 30277U 99025YN  25343.17593590  .00003409  00000+0  17032-2 0  9990", "line2": "2 30277  98.9729  53.8317 0124039 187.7810 201.1328 14.13547228967391"}}, "geometry": {"type": "Point", "coordinates": [172.40456631380738, -79.85837421935113]}}, {"type": "Feature", "properties": {"norad_id": 30279, "name": "FENGYUN 1C DEB", "group": "fengyun-1c-debris", "lat": -11.788902775684301, "lon": -79.68523203414168, "alt_km": 823.7502767880778, "timestamp": "2025-12-09T18:55:17.507027+00:00", "meta": {"OBJECT_NAME": "FENGYUN 1C DEB", "OBJECT_ID": "1999-025YQ", "EPOCH": "2025-12-09T09:22:12.334656", "MEAN_MOTION": 14.23078809, "ECCENTRICITY": 0.02198322, "INCLINATION": 99.1494, "RA_OF_ASC_NODE": 277.9735, "ARG_OF_PERICENTER": 82.1979, "MEAN_ANOMALY": 30.7634, "EPHEMERIS_TYPE": 0, "CLASSIFICATION_TYPE": "U", "NORAD_CAT_ID": 30279, "ELEMENT_SET_NO": 999, "REV_AT_EPOCH": 97563, "BSTAR": 0.0010491086, "MEAN_MOTION_DOT": 2.985e-05, "MEAN_MOTION_DDOT": 0}, "tle": {"line1": "1 30279U 99025YQ  25343.39042054  .00002985  00000+0  10491-2 0  9990", "line2": "2 30279  99.1494 277.9735 0219832  82.1979  30.7634 14.23078809975635"}}, "geometry": {"type": "Point", "coordinates": [-79.68523203414168, -11.788902775684301]}}, {"type": "Feature", "properties": {"norad_id": 30280, "name": "FENGYUN 1C DEB", "group": "fengyun-1c-debris", "lat": 22.784175244810843, "lon": -30.41403295793131, "alt_km": 857.5656014518945, "timestamp": "2025-12-09T18:55:17.507037+00:00", "meta": {"OBJECT_NAME": "FENGYUN 1C DEB", "OBJECT_ID": "1999-025YR", "EPOCH": "2025-12-08T22:27:44.269056", "MEAN_MOTION": 13.98327686, "ECCENTRICITY": 0.0080653, "INCLINATION": 98.7748, "RA_OF_ASC_NODE": 332.4903, "ARG_OF_PERICENTER": 340.2702, "MEAN_ANOMALY": 73.3063, "EPHEMERIS_TYPE": 0, "CLASSIFICATION_TYPE": "U", "NORAD_CAT_ID": 30280, "ELEMENT_SET_NO": 999, "REV_AT_EPOCH": 96353, "BSTAR": 0.00021272, "MEAN_MOTION_DOT": 2.7e-06, "MEAN_MOTION_DDOT": 0}, "tle": {"line1": "1 30280U 99025YR  25342.93592904  .00000270  00000+0  21272-3 0  9990", "line2": "2 30280  98.7748 332.4903 0080653 340.2702  73.3063 13.98327686963533"}}, "geometry": {"type": "Point", "coordinates": [-30.41403295793131, 22.784175244810843]}}, {"type": "Feature", "properties": {"norad_id": 30281, "name": "FENGYUN 1C DEB", "group": "fengyun-1c-debris", "lat": 63.54032878826101, "lon": 171.71665958894525, "alt_km": 864.6570189875483, "timestamp": "2025-12-09T18:55:17.507047+00:00", "meta": {"OBJECT_NAME": "FENGYUN 1C DEB", "OBJECT_ID": "1999-025YS", "EPOCH": "2025-12-09T10:35:41.630784", "MEAN_MOTION": 14.10471162, "ECCENTRICITY": 0.00278634, "INCLINATION": 98.7565, "RA_OF_ASC_NODE": 333.3389, "ARG_OF_PERICENTER": 246.757, "MEAN_ANOMALY": 267.8172, "EPHEMERIS_TYPE": 0, "CLASSIFICATION_TYPE": "U", "NORAD_CAT_ID": 30281, "ELEMENT_SET_NO": 999, "REV_AT_EPOCH": 97174, "BSTAR": 0.00042349798, "MEAN_MOTION_DOT": 7.13e-06, "MEAN_MOTION_DDOT": 0}, "tle": {"line1": "1 30281U 99025YS  25343.44145406  .00000713  00000+0  42350-3 0  9991", "line2": "2 30281  98.7565 333.3389 0027863 246.7570 267.8172 14.10471162971743"}}, "geometry": {"type": "Point", "coordinates": [171.71665958894525, 63.54032878826101]}}, {"type": "Feature", "properties": {"norad_id": 30282, "name": "FENGYUN 1C DEB", "group": "fengyun-1c-debris", "lat": -21.33428730152905, "lon": 163.84079342536967, "alt_km": 1003.77253489547, "timestamp": "2025-12-09T18:55:17.507057+00:00", "meta": {"OBJECT_NAME": "FENGYUN 1C DEB", "OBJECT_ID": "1999-025YT", "EPOCH": "2025-12-09T11:56:26.324160", "MEAN_MOTION": 14.12966124, "ECCENTRICITY": 0.02105075, "INCLINATION": 98.5015, "RA_OF_ASC_NODE": 346.9134, "ARG_OF_PERICENTER": 11.3943, "MEAN_ANOMALY": 151.8116, "EPHEMERIS_TYPE": 0, "CLASSIFICATION_TYPE": "U", "NORAD_CAT_ID": 30282, "ELEMENT_SET_NO": 999, "REV_AT_EPOCH": 97305, "BSTAR": 0.0006039824, "MEAN_MOTION_DOT": 1.347e-05, "MEAN_MOTION_DDOT": 0}, "tle": {"line1": "1 30282U 99025YT  25343.49752690  .00001347  00000+0  60398-3 0  9992", "line2": "2 30282  98.5015 346.9134 0210507  11.3943 151.8116 14.12966124973054"}}, "geometry": {"type": "Point", "coordinates": [163.84079342536967, -21.33428730152905]}}]}